[{"id":"60507","name":"TANAGER-1","tle1":"1 60507U 24149AR  26175.15522891  .00001017  00000+0  23583-4 0  9995","tle2":"2 60507  97.2460 269.3892 0004153 272.4125  87.6649 15.44790825104115"},{"id":"60508","name":"EAGLEEYE","tle1":"1 60508U 24149AS  26176.25667500  .00120379  00000+0  89904-3 0  9996","tle2":"2 60508  97.3725 270.0470 0004845 218.7249 141.3667 15.72341854104203"},{"id":"60509","name":"FLOCK 4BE-29","tle1":"1 60509U 24149AT  26176.21500098  .00020476  00000+0  44481-3 0  9999","tle2":"2 60509  97.3810 262.2091 0001770 236.3858 123.7222 15.44383559103653"},{"id":"60510","name":"TRANSPORTER-11 OBJECT AU","tle1":"1 60510U 24149AU  26176.17845649  .00017473  00000+0  43349-3 0  9995","tle2":"2 60510  97.3732 259.9634 0002469 243.1906 116.9088 15.40424163103545"},{"id":"60511","name":"FLOCK 4BE-2","tle1":"1 60511U 24149AV  26176.24180876  .00070442  00000+0  11010-2 0  9992","tle2":"2 60511  97.3835 263.7703 0004092 224.4111 135.6815 15.53544150103756"},{"id":"60512","name":"FLOCK 4BE-13","tle1":"1 60512U 24149AW  26176.20279524  .00017036  00000+0  40010-3 0  9991","tle2":"2 60512  97.3722 260.6979 0003426 222.7788 137.3192 15.42087150103605"},{"id":"60513","name":"FLOCK 4BE-27","tle1":"1 60513U 24149AX  26176.21526865  .00010821  00000+0  32528-3 0  9996","tle2":"2 60513  97.3826 258.0704 0002351 269.2462  90.8512 15.34574684103376"},{"id":"60514","name":"FLOCK 4BE-9","tle1":"1 60514U 24149AY  26176.20756107  .00018474  00000+0  44938-3 0  9990","tle2":"2 60514  97.3795 260.5575 0001771 240.9825 119.1244 15.41012803103555"},{"id":"60516","name":"FLOCK 4BE-6","tle1":"1 60516U 24149BA  26176.17773109  .00016801  00000+0  42594-3 0  9997","tle2":"2 60516  97.3792 259.8705 0002383 246.3970 113.7026 15.39772641103504"},{"id":"60517","name":"FLOCK 4BE-14","tle1":"1 60517U 24149BB  26176.21898907  .00020305  00000+0  49011-3 0  9992","tle2":"2 60517  97.3696 260.0555 0003441 249.3364 110.7514 15.41224357103565"},{"id":"60518","name":"FLOCK 4BE-1","tle1":"1 60518U 24149BC  26176.22651904  .00021014  00000+0  48059-3 0  9997","tle2":"2 60518  97.3782 261.3695 0003212 247.6063 112.4844 15.42841981103614"},{"id":"60519","name":"FLOCK 4BE-28","tle1":"1 60519U 24149BD  26176.22868575  .00021712  00000+0  45911-3 0  9991","tle2":"2 60519  97.3747 262.1208 0003289 242.5508 117.5407 15.45164947103688"},{"id":"60520","name":"IPERDRONE.0","tle1":"1 60520U 24149BE  26176.22400476  .00093453  00000+0  84582-3 0  9993","tle2":"2 60520  97.3775 269.8380 0004132 205.9178 154.1877 15.67773286104179"},{"id":"60521","name":"TRANSPORTER-11 OBJECT BF","tle1":"1 60521U 24149BF  26176.20229303  .00358185  48813-4  12810-2 0  9999","tle2":"2 60521  97.3762 272.7847 0007080 230.1416 129.9234 15.88772768104351"},{"id":"60522","name":"CONNECTA IOT-2","tle1":"1 60522U 24149BG  26176.19044437  .00004714  00000+0  19730-3 0  9997","tle2":"2 60522  97.3840 254.2148 0004939 303.3543  56.7221 15.24035155103110"},{"id":"60524","name":"CONNECTA IOT-4","tle1":"1 60524U 24149BJ  26176.18777603  .00023992  00000+0  55602-3 0  9993","tle2":"2 60524  97.3800 260.6533 0004364 247.7330 112.3454 15.42414090103569"},{"id":"60525","name":"ORESAT0.5","tle1":"1 60525U 24149BK  26176.21302298  .00023149  00000+0  48602-3 0  9998","tle2":"2 60525  97.3723 262.3369 0004531 235.6724 124.4097 15.45356644103716"},{"id":"60526","name":"DEIMOS","tle1":"1 60526U 24149BL  26176.18492922  .00021781  00000+0  47127-3 0  9990","tle2":"2 60526  97.3787 262.4450 0004359 243.6033 116.4769 15.44481310103680"},{"id":"60527","name":"CUAVA-2","tle1":"1 60527U 24149BM  26176.16029124  .00014623  00000+0  41524-3 0  9991","tle2":"2 60527  97.3730 257.6933 0005330 258.2535 101.8111 15.36282293103397"},{"id":"60528","name":"ERNST","tle1":"1 60528U 24149BN  26176.16565159  .00016386  00000+0  42052-3 0  9990","tle2":"2 60528  97.3809 259.9455 0004531 259.4435 100.6300 15.39396495103506"},{"id":"60530","name":"TORO","tle1":"1 60530U 24149BQ  26176.19694084  .00001541  00000+0  14089-3 0  9992","tle2":"2 60530  97.6781 250.7154 0001115  87.8703 272.2646 14.96446941101154"},{"id":"60531","name":"HYPSO-2","tle1":"1 60531U 24149BR  26175.94504405  .00002377  00000+0  20196-3 0  9996","tle2":"2 60531  97.6810 252.0919 0000682 126.4168 233.7118 14.98820099101210"},{"id":"60532","name":"LEMU NGE","tle1":"1 60532U 24149BS  26175.48083824  .00002008  00000+0  18896-3 0  9998","tle2":"2 60532  97.6841 250.2930 0001647  59.4758 300.6625 14.94978070101047"},{"id":"60533","name":"LEMUR-2-STELLA","tle1":"1 60533U 24149BT  26175.49447676  .00010269  00000+0  60250-3 0  9998","tle2":"2 60533  97.6737 257.9813 0001486  95.9838 264.1561 15.11941868101601"},{"id":"60534","name":"SATELIOT_2","tle1":"1 60534U 24149BU  26176.18441665  .00001287  00000+0  11864-3 0  9995","tle2":"2 60534  97.6830 250.9948 0001854  83.9377 276.2056 14.96388583101167"},{"id":"60535","name":"NIGHTJAR","tle1":"1 60535U 24149BV  26176.20231930  .00003092  00000+0  25965-3 0  9994","tle2":"2 60535  97.6831 252.7971 0000801 107.6360 252.4951 14.99052399144075"},{"id":"60536","name":"LEMUR-2-MARHISYAM","tle1":"1 60536U 24149BW  26176.20572484  .00011795  00000+0  70169-3 0  9992","tle2":"2 60536  97.6883 259.1534 0003365 103.6247 256.5358 15.11401407101697"},{"id":"60537","name":"SATELIOT_4","tle1":"1 60537U 24149BX  26176.19362016  .00001379  00000+0  12583-3 0  9992","tle2":"2 60537  97.6733 250.5259 0002461  40.0016 320.1387 14.96690481101172"},{"id":"60538","name":"PICO-02A021","tle1":"1 60538U 24149BY  26175.48832343  .00004519  00000+0  33748-3 0  9994","tle2":"2 60538  97.6765 254.2571 0004447  11.0262 349.1060 15.03315610100831"},{"id":"60539","name":"ICEYE-X43","tle1":"1 60539U 24149BZ  26176.16902029  .00004213  00000+0  34622-3 0  9993","tle2":"2 60539  97.6809 253.0247 0008158  61.7082 298.4964 14.99671648101316"}]