OBJECT_NAME,OBJECT_ID,EPOCH,MEAN_MOTION,ECCENTRICITY,INCLINATION,RA_OF_ASC_NODE,ARG_OF_PERICENTER,MEAN_ANOMALY,EPHEMERIS_TYPE,CLASSIFICATION_TYPE,NORAD_CAT_ID,ELEMENT_SET_NO,REV_AT_EPOCH,BSTAR,MEAN_MOTION_DOT,MEAN_MOTION_DDOT
TANAGER-1,2024-149AR,2026-06-24T03:43:31.777824,15.44790825,.00041531,97.2460,269.3892,272.4125,87.6649,0,U,60507,999,10411,.23583259E-4,.1017E-4,0
EAGLEEYE,2024-149AS,2026-06-25T06:09:36.720000,15.72341854,.00048455,97.3725,270.0470,218.7249,141.3667,0,U,60508,999,10420,.89903846E-3,.120379E-2,0
FLOCK 4BE-29,2024-149AT,2026-06-25T05:09:36.084672,15.44383559,.00017706,97.3810,262.2091,236.3858,123.7222,0,U,60509,999,10365,.4448053E-3,.20476E-3,0
TRANSPORTER-11 OBJECT AU,2024-149AU,2026-06-25T04:16:58.640736,15.40424163,.00024692,97.3732,259.9634,243.1906,116.9088,0,U,60510,999,10354,.43348932E-3,.17473E-3,0
FLOCK 4BE-2,2024-149AV,2026-06-25T05:48:12.276864,15.53544150,.0004092,97.3835,263.7703,224.4111,135.6815,0,U,60511,999,10375,.11009511E-2,.70442E-3,0
FLOCK 4BE-13,2024-149AW,2026-06-25T04:52:01.508736,15.42087150,.00034266,97.3722,260.6979,222.7788,137.3192,0,U,60512,999,10360,.40010134E-3,.17036E-3,0
FLOCK 4BE-27,2024-149AX,2026-06-25T05:09:59.211360,15.34574684,.0002351,97.3826,258.0704,269.2462,90.8512,0,U,60513,999,10337,.32528128E-3,.10821E-3,0
FLOCK 4BE-9,2024-149AY,2026-06-25T04:58:53.276448,15.41012803,.00017714,97.3795,260.5575,240.9825,119.1244,0,U,60514,999,10355,.4493775E-3,.18474E-3,0
FLOCK 4BE-6,2024-149BA,2026-06-25T04:15:55.966176,15.39772641,.00023838,97.3792,259.8705,246.3970,113.7026,0,U,60516,999,10350,.42593539E-3,.16801E-3,0
FLOCK 4BE-14,2024-149BB,2026-06-25T05:15:20.655648,15.41224357,.0003441,97.3696,260.0555,249.3364,110.7514,0,U,60517,999,10356,.49010901E-3,.20305E-3,0
FLOCK 4BE-1,2024-149BC,2026-06-25T05:26:11.245056,15.42841981,.00032129,97.3782,261.3695,247.6063,112.4844,0,U,60518,999,10361,.48059247E-3,.21014E-3,0
FLOCK 4BE-28,2024-149BD,2026-06-25T05:29:18.448800,15.45164947,.00032899,97.3747,262.1208,242.5508,117.5407,0,U,60519,999,10368,.45911398E-3,.21712E-3,0
IPERDRONE.0,2024-149BE,2026-06-25T05:22:34.011264,15.67773286,.00041329,97.3775,269.8380,205.9178,154.1877,0,U,60520,999,10417,.84582488E-3,.93453E-3,0
TRANSPORTER-11 OBJECT BF,2024-149BF,2026-06-25T04:51:18.117792,15.88772768,.00070806,97.3762,272.7847,230.1416,129.9234,0,U,60521,999,10435,.12809858E-2,.358185E-2,.48813314E-4
CONNECTA IOT-2,2024-149BG,2026-06-25T04:34:14.393568,15.24035155,.00049392,97.3840,254.2148,303.3543,56.7221,0,U,60522,999,10311,.19729519E-3,.4714E-4,0
CONNECTA IOT-4,2024-149BJ,2026-06-25T04:30:23.848992,15.42414090,.00043648,97.3800,260.6533,247.7330,112.3454,0,U,60524,999,10356,.55601635E-3,.23992E-3,0
ORESAT0.5,2024-149BK,2026-06-25T05:06:45.185472,15.45356644,.0004531,97.3723,262.3369,235.6724,124.4097,0,U,60525,999,10371,.48601594E-3,.23149E-3,0
DEIMOS,2024-149BL,2026-06-25T04:26:17.884608,15.44481310,.00043595,97.3787,262.4450,243.6033,116.4769,0,U,60526,999,10368,.47127213E-3,.21781E-3,0
CUAVA-2,2024-149BM,2026-06-25T03:50:49.163136,15.36282293,.00053303,97.3730,257.6933,258.2535,101.8111,0,U,60527,999,10339,.41524478E-3,.14623E-3,0
ERNST,2024-149BN,2026-06-25T03:58:32.297376,15.39396495,.00045313,97.3809,259.9455,259.4435,100.6300,0,U,60528,999,10350,.42051903E-3,.16386E-3,0
TORO,2024-149BQ,2026-06-25T04:43:35.688576,14.96446941,.0001115,97.6781,250.7154,87.8703,272.2646,0,U,60530,999,10115,.14089432E-3,.1541E-4,0
HYPSO-2,2024-149BR,2026-06-24T22:40:51.805920,14.98820099,.00006821,97.6810,252.0919,126.4168,233.7118,0,U,60531,999,10121,.20196252E-3,.2377E-4,0
LEMU NGE,2024-149BS,2026-06-24T11:32:24.423936,14.94978070,.00016475,97.6841,250.2930,59.4758,300.6625,0,U,60532,999,10104,.18896253E-3,.2008E-4,0
LEMUR-2-STELLA,2024-149BT,2026-06-24T11:52:02.792064,15.11941868,.00014868,97.6737,257.9813,95.9838,264.1561,0,U,60533,999,10160,.60249682E-3,.10269E-3,0
SATELIOT_2,2024-149BU,2026-06-25T04:25:33.598560,14.96388583,.0001854,97.6830,250.9948,83.9377,276.2056,0,U,60534,999,10116,.11864071E-3,.1287E-4,0
NIGHTJAR,2024-149BV,2026-06-25T04:51:20.387520,14.99052399,.00008019,97.6831,252.7971,107.6360,252.4951,0,U,60535,999,14407,.25965376E-3,.3092E-4,0
LEMUR-2-MARHISYAM,2024-149BW,2026-06-25T04:56:14.626176,15.11401407,.00033656,97.6883,259.1534,103.6247,256.5358,0,U,60536,999,10169,.70168513E-3,.11795E-3,0
SATELIOT_4,2024-149BX,2026-06-25T04:38:48.781824,14.96690481,.00024616,97.6733,250.5259,40.0016,320.1387,0,U,60537,999,10117,.12583371E-3,.1379E-4,0
PICO-02A021,2024-149BY,2026-06-24T11:43:11.144352,15.03315610,.00044475,97.6765,254.2571,11.0262,349.1060,0,U,60538,999,10083,.33748121E-3,.4519E-4,0
ICEYE-X43,2024-149BZ,2026-06-25T04:03:23.353056,14.99671648,.00081588,97.6809,253.0247,61.7082,298.4964,0,U,60539,999,10131,.34621822E-3,.4213E-4,0
